{
  "norad_id": 40076,
  "name": "TECHDEMOSAT-1 (TDS-1)",
  "history": [
    {
      "epoch": "2026-03-28T22:02:37.489344Z",
      "apogee_km": 534.8293024899904,
      "perigee_km": 525.6522134762863,
      "latitude_deg": 1.402067763765841e-05,
      "longitude_deg": -84.71234810949367,
      "height_km": 537.7096439637381,
      "semi_major_axis_km": 6908.3777579831385,
      "eccentricity": 0.0006642,
      "inclination_deg": 98.3787,
      "raan_deg": 72.2759,
      "arg_perigee_deg": 164.4639,
      "mean_anomaly_deg": 195.6794,
      "mean_motion_rev_day": 15.11954236
    }
  ]
}